{
  "norad_id": 38041,
  "name": "GLOBALSTAR M080",
  "history": [
    {
      "epoch": "2026-03-28T21:22:15.860640Z",
      "apogee_km": 1414.5573460797596,
      "perigee_km": 1412.6380859845058,
      "latitude_deg": 12.75566902183029,
      "longitude_deg": -73.57903680344715,
      "height_km": 1413.1704773286428,
      "semi_major_axis_km": 7791.734716032132,
      "eccentricity": 0.00012316,
      "inclination_deg": 52.0049,
      "raan_deg": 263.4262,
      "arg_perigee_deg": 96.148,
      "mean_anomaly_deg": 67.5707,
      "mean_motion_rev_day": 12.62267863
    },
    {
      "epoch": "2026-03-30T05:43:25.601664Z",
      "apogee_km": 1414.5495288075608,
      "perigee_km": 1412.6453847410148,
      "latitude_deg": 5.964839078362027,
      "longitude_deg": 161.17427087732716,
      "height_km": 1413.45025276835,
      "semi_major_axis_km": 7791.7344567742875,
      "eccentricity": 0.00012219,
      "inclination_deg": 52.0049,
      "raan_deg": 259.3224,
      "arg_perigee_deg": 97.9365,
      "mean_anomaly_deg": 74.4273,
      "mean_motion_rev_day": 12.62267926
    },
    {
      "epoch": "2026-03-30T10:38:02.625216Z",
      "apogee_km": 1414.547937535026,
      "perigee_km": 1412.6469101702933,
      "latitude_deg": 17.592268175989123,
      "longitude_deg": -74.37817651035539,
      "height_km": 1413.4827549148538,
      "semi_major_axis_km": 7791.734423852659,
      "eccentricity": 0.00012199,
      "inclination_deg": 52.0048,
      "raan_deg": 258.6996,
      "arg_perigee_deg": 98.311,
      "mean_anomaly_deg": 284.2189,
      "mean_motion_rev_day": 12.62267934
    },
    {
      "epoch": "2026-03-30T20:55:45.119136Z",
      "apogee_km": 1414.5447432049423,
      "perigee_km": 1412.6502608781166,
      "latitude_deg": 5.651815547247441,
      "longitude_deg": -69.21339918024427,
      "height_km": 1413.4608483157056,
      "semi_major_axis_km": 7791.73450204153,
      "eccentricity": 0.00012157,
      "inclination_deg": 52.005,
      "raan_deg": 257.3939,
      "arg_perigee_deg": 99.0182,
      "mean_anomaly_deg": 73.742,
      "mean_motion_rev_day": 12.62267915
    },
    {
      "epoch": "2026-03-31T16:59:39.401952Z",
      "apogee_km": 1414.535384049328,
      "perigee_km": 1412.659134439703,
      "latitude_deg": 10.762872170438168,
      "longitude_deg": 179.34975729486908,
      "height_km": 1413.4820566210844,
      "semi_major_axis_km": 7791.734259244516,
      "eccentricity": 0.0001204,
      "inclination_deg": 52.0051,
      "raan_deg": 254.8488,
      "arg_perigee_deg": 100.5867,
      "mean_anomaly_deg": 273.1463,
      "mean_motion_rev_day": 12.62267974
    },
    {
      "epoch": "2026-04-01T10:08:52.810944Z",
      "apogee_km": 1414.5275923150693,
      "perigee_km": 1412.6669261739626,
      "latitude_deg": 18.10711891099032,
      "longitude_deg": -74.60904567070759,
      "height_km": 1413.5626401990298,
      "semi_major_axis_km": 7791.734259244516,
      "eccentricity": 0.0001194,
      "inclination_deg": 52.0049,
      "raan_deg": 252.673,
      "arg_perigee_deg": 101.6348,
      "mean_anomaly_deg": 281.5664,
      "mean_motion_rev_day": 12.62267974
    },
    {
      "epoch": "2026-04-02T16:30:16.395264Z",
      "apogee_km": 1414.5182501845738,
      "perigee_km": 1412.676128387543,
      "latitude_deg": 10.745014266764043,
      "longitude_deg": 178.70373327210126,
      "height_km": 1413.533199671468,
      "semi_major_axis_km": 7791.734189286059,
      "eccentricity": 0.00011821,
      "inclination_deg": 52.005,
      "raan_deg": 248.8226,
      "arg_perigee_deg": 103.6831,
      "mean_anomaly_deg": 270.0269,
      "mean_motion_rev_day": 12.62267991
    },
    {
      "epoch": "2026-04-03T17:12:22.020192Z",
      "apogee_km": 1414.5072720707358,
      "perigee_km": 1412.6871229621956,
      "latitude_deg": 10.17401775086038,
      "longitude_deg": 163.56895131280586,
      "height_km": 1413.5801707487622,
      "semi_major_axis_km": 7791.734197516465,
      "eccentricity": 0.0001168,
      "inclination_deg": 52.0051,
      "raan_deg": 245.6895,
      "arg_perigee_deg": 105.4532,
      "mean_anomaly_deg": 267.5284,
      "mean_motion_rev_day": 12.62267989
    },
    {
      "epoch": "2026-04-03T17:12:22.021056Z",
      "apogee_km": 1414.5073458723937,
      "perigee_km": 1412.687040930131,
      "latitude_deg": 10.174016843114533,
      "longitude_deg": 163.56894696746525,
      "height_km": 1413.5801700266597,
      "semi_major_axis_km": 7791.734193401262,
      "eccentricity": 0.00011681,
      "inclination_deg": 52.0051,
      "raan_deg": 245.6895,
      "arg_perigee_deg": 105.4532,
      "mean_anomaly_deg": 267.5284,
      "mean_motion_rev_day": 12.6226799
    },
    {
      "epoch": "2026-04-05T13:14:33.908640Z",
      "apogee_km": 1414.493733909545,
      "perigee_km": 1412.7000767645359,
      "latitude_deg": 49.68474721445078,
      "longitude_deg": -86.03795110746061,
      "height_km": 1418.6016942033539,
      "semi_major_axis_km": 7791.733905337041,
      "eccentricity": 0.0001151,
      "inclination_deg": 52.0051,
      "raan_deg": 240.1039,
      "arg_perigee_deg": 108.0612,
      "mean_anomaly_deg": 326.8782,
      "mean_motion_rev_day": 12.6226806
    },
    {
      "epoch": "2026-04-05T17:11:51.449280Z",
      "apogee_km": 1414.491777744719,
      "perigee_km": 1412.7020164685528,
      "latitude_deg": 49.97645012189396,
      "longitude_deg": -100.13320799090192,
      "height_km": 1418.528839052145,
      "semi_major_axis_km": 7791.733897106636,
      "eccentricity": 0.00011485,
      "inclination_deg": 52.0051,
      "raan_deg": 239.6023,
      "arg_perigee_deg": 108.2746,
      "mean_anomaly_deg": 355.845,
      "mean_motion_rev_day": 12.62268062
    },
    {
      "epoch": "2026-04-07T16:13:35.747616Z",
      "apogee_km": 1414.473273733768,
      "perigee_km": 1412.7201336504377,
      "latitude_deg": 10.128007514592744,
      "longitude_deg": 162.26976454531533,
      "height_km": 1413.671815882532,
      "semi_major_axis_km": 7791.733703692103,
      "eccentricity": 0.0001125,
      "inclination_deg": 52.0053,
      "raan_deg": 233.6372,
      "arg_perigee_deg": 111.4931,
      "mean_anomaly_deg": 261.4292,
      "mean_motion_rev_day": 12.62268109
    },
    {
      "epoch": "2026-04-08T09:26:49.407360Z",
      "apogee_km": 1414.4670150923366,
      "perigee_km": 1412.7260301540418,
      "latitude_deg": 26.9597044226261,
      "longitude_deg": -83.62163575306673,
      "height_km": 1414.5090124493659,
      "semi_major_axis_km": 7791.733522623189,
      "eccentricity": 0.00011172,
      "inclination_deg": 52.0055,
      "raan_deg": 231.4531,
      "arg_perigee_deg": 112.4461,
      "mean_anomaly_deg": 282.5866,
      "mean_motion_rev_day": 12.62268153
    },
    {
      "epoch": "2026-04-09T15:44:18.735360Z",
      "apogee_km": 1414.4543307491967,
      "perigee_km": 1412.7385910411076,
      "latitude_deg": 10.35849196716274,
      "longitude_deg": 161.80009159832645,
      "height_km": 1413.7049953905064,
      "semi_major_axis_km": 7791.733460895152,
      "eccentricity": 0.0001101,
      "inclination_deg": 52.0055,
      "raan_deg": 227.6111,
      "arg_perigee_deg": 114.477,
      "mean_anomaly_deg": 258.7387,
      "mean_motion_rev_day": 12.62268168
    },
    {
      "epoch": "2026-04-10T12:59:53.389824Z",
      "apogee_km": 1414.4471124065003,
      "perigee_km": 1412.7453978635785,
      "latitude_deg": 51.1405754345077,
      "longitude_deg": -94.10577652430466,
      "height_km": 1419.0023137607661,
      "semi_major_axis_km": 7791.733255135039,
      "eccentricity": 0.0001092,
      "inclination_deg": 52.0057,
      "raan_deg": 224.9146,
      "arg_perigee_deg": 116.0486,
      "mean_anomaly_deg": 324.4264,
      "mean_motion_rev_day": 12.62268218
    },
    {
      "epoch": "2026-04-11T15:14:47.720256Z",
      "apogee_km": 1414.4337718001443,
      "perigee_km": 1412.7585491706404,
      "latitude_deg": 10.011886751488058,
      "longitude_deg": 160.9218175255048,
      "height_km": 1413.7616371852578,
      "semi_major_axis_km": 7791.733160485393,
      "eccentricity": 0.0001075,
      "inclination_deg": 52.0057,
      "raan_deg": 221.5856,
      "arg_perigee_deg": 117.9302,
      "mean_anomaly_deg": 254.8432,
      "mean_motion_rev_day": 12.62268241
    },
    {
      "epoch": "2026-04-13T02:17:45.168288Z",
      "apogee_km": 1414.4109217235064,
      "perigee_km": 1412.7815144729366,
      "latitude_deg": 6.066196638801377,
      "longitude_deg": 156.67258783518267,
      "height_km": 1413.195488345877,
      "semi_major_axis_km": 7791.733218098221,
      "eccentricity": 0.00010456,
      "inclination_deg": 52.0057,
      "raan_deg": 217.1403,
      "arg_perigee_deg": 120.3539,
      "mean_anomaly_deg": 51.8857,
      "mean_motion_rev_day": 12.62268227
    },
    {
      "epoch": "2026-04-14T07:58:30.796032Z",
      "apogee_km": 1414.3966913815511,
      "perigee_km": 1412.7956460500427,
      "latitude_deg": 26.546329174372882,
      "longitude_deg": -85.91260322418482,
      "height_km": 1414.6094565510384,
      "semi_major_axis_km": 7791.733168715797,
      "eccentricity": 0.00010274,
      "inclination_deg": 52.0055,
      "raan_deg": 213.376,
      "arg_perigee_deg": 122.3373,
      "mean_anomaly_deg": 272.1268,
      "mean_motion_rev_day": 12.62268239
    },
    {
      "epoch": "2026-04-15T14:16:10.015104Z",
      "apogee_km": 1414.3761088591436,
      "perigee_km": 1412.816203881237,
      "latitude_deg": 10.321919362457558,
      "longitude_deg": 159.8758443115951,
      "height_km": 1413.8212869848232,
      "semi_major_axis_km": 7791.73315637019,
      "eccentricity": 0.0001001,
      "inclination_deg": 52.0054,
      "raan_deg": 209.5337,
      "arg_perigee_deg": 124.4932,
      "mean_anomaly_deg": 248.6742,
      "mean_motion_rev_day": 12.62268242
    }
  ]
}